[{"OBJECT_NAME":"ONEWEB-0306","OBJECT_ID":"2021-083C","EPOCH":"2025-10-03T14:29:39.328224","MEAN_MOTION":13.1868721,"ECCENTRICITY":0.0001781,"INCLINATION":87.9217,"RA_OF_ASC_NODE":26.3915,"ARG_OF_PERICENTER":106.5815,"MEAN_ANOMALY":253.5513,"EPHEMERIS_TYPE":0,"CLASSIFICATION_TYPE":"U","NORAD_CAT_ID":49188,"ELEMENT_SET_NO":999,"REV_AT_EPOCH":19620,"BSTAR":0.00032747567,"MEAN_MOTION_DOT":1.42e-6,"MEAN_MOTION_DDOT":0},{"OBJECT_NAME":"ONEWEB-0307","OBJECT_ID":"2021-083D","EPOCH":"2025-10-03T06:55:51.225312","MEAN_MOTION":13.13481741,"ECCENTRICITY":0.00018411,"INCLINATION":87.9036,"RA_OF_ASC_NODE":11.3047,"ARG_OF_PERICENTER":103.0377,"MEAN_ANOMALY":257.0958,"EPHEMERIS_TYPE":0,"CLASSIFICATION_TYPE":"U","NORAD_CAT_ID":49189,"ELEMENT_SET_NO":999,"REV_AT_EPOCH":19720,"BSTAR":-0.0038900675,"MEAN_MOTION_DOT":-1.408e-5,"MEAN_MOTION_DDOT":0},{"OBJECT_NAME":"ONEWEB-0320","OBJECT_ID":"2021-083E","EPOCH":"2025-10-03T12:49:49.831392","MEAN_MOTION":13.1868007,"ECCENTRICITY":0.00018571,"INCLINATION":87.9214,"RA_OF_ASC_NODE":26.4333,"ARG_OF_PERICENTER":98.9611,"MEAN_ANOMALY":261.1732,"EPHEMERIS_TYPE":0,"CLASSIFICATION_TYPE":"U","NORAD_CAT_ID":49190,"ELEMENT_SET_NO":999,"REV_AT_EPOCH":19615,"BSTAR":-0.0047259847,"MEAN_MOTION_DOT":-1.85e-5,"MEAN_MOTION_DDOT":0},{"OBJECT_NAME":"ONEWEB-0321","OBJECT_ID":"2021-083F","EPOCH":"2025-10-03T12:53:09.181248","MEAN_MOTION":13.20771022,"ECCENTRICITY":0.00018772,"INCLINATION":87.9239,"RA_OF_ASC_NODE":325.6114,"ARG_OF_PERICENTER":107.1442,"MEAN_ANOMALY":252.9897,"EPHEMERIS_TYPE":0,"CLASSIFICATION_TYPE":"U","NORAD_CAT_ID":49191,"ELEMENT_SET_NO":999,"REV_AT_EPOCH":20295,"BSTAR":-0.00077060561,"MEAN_MOTION_DOT":-3.0e-6,"MEAN_MOTION_DDOT":0},{"OBJECT_NAME":"ONEWEB-0322","OBJECT_ID":"2021-083G","EPOCH":"2025-10-04T12:04:53.940576","MEAN_MOTION":13.1346942,"ECCENTRICITY":0.0001656,"INCLINATION":87.905,"RA_OF_ASC_NODE":11.0625,"ARG_OF_PERICENTER":117.4229,"MEAN_ANOMALY":242.7069,"EPHEMERIS_TYPE":0,"CLASSIFICATION_TYPE":"U","NORAD_CAT_ID":49192,"ELEMENT_SET_NO":999,"REV_AT_EPOCH":19735,"BSTAR":0.00015506,"MEAN_MOTION_DOT":6.9e-7,"MEAN_MOTION_DDOT":0},{"OBJECT_NAME":"ONEWEB-0324","OBJECT_ID":"2021-083H","EPOCH":"2025-10-03T14:20:08.294208","MEAN_MOTION":13.18688081,"ECCENTRICITY":0.0001919,"INCLINATION":87.9217,"RA_OF_ASC_NODE":26.4003,"ARG_OF_PERICENTER":101.3603,"MEAN_ANOMALY":258.7745,"EPHEMERIS_TYPE":0,"CLASSIFICATION_TYPE":"U","NORAD_CAT_ID":49193,"ELEMENT_SET_NO":999,"REV_AT_EPOCH":19618,"BSTAR":-8.7781653e-5,"MEAN_MOTION_DOT":-2.2e-7,"MEAN_MOTION_DDOT":0},{"OBJECT_NAME":"ONEWEB-0325","OBJECT_ID":"2021-083J","EPOCH":"2025-10-03T14:24:54.620352","MEAN_MOTION":13.18685927,"ECCENTRICITY":0.00017701,"INCLINATION":87.9216,"RA_OF_ASC_NODE":26.4174,"ARG_OF_PERICENTER":102.1555,"MEAN_ANOMALY":257.9776,"EPHEMERIS_TYPE":0,"CLASSIFICATION_TYPE":"U","NORAD_CAT_ID":49194,"ELEMENT_SET_NO":999,"REV_AT_EPOCH":19619,"BSTAR":0.000197478,"MEAN_MOTION_DOT":9.1e-7,"MEAN_MOTION_DDOT":0},{"OBJECT_NAME":"ONEWEB-0326","OBJECT_ID":"2021-083K","EPOCH":"2025-10-03T07:29:25.259424","MEAN_MOTION":13.18687779,"ECCENTRICITY":0.00017825,"INCLINATION":87.922,"RA_OF_ASC_NODE":26.4625,"ARG_OF_PERICENTER":89.2386,"MEAN_ANOMALY":270.895,"EPHEMERIS_TYPE":0,"CLASSIFICATION_TYPE":"U","NORAD_CAT_ID":49195,"ELEMENT_SET_NO":999,"REV_AT_EPOCH":19614,"BSTAR":7.6813984e-5,"MEAN_MOTION_DOT":4.3e-7,"MEAN_MOTION_DDOT":0},{"OBJECT_NAME":"ONEWEB-0327","OBJECT_ID":"2021-083L","EPOCH":"2025-10-03T07:29:02.309856","MEAN_MOTION":13.18685731,"ECCENTRICITY":0.00016643,"INCLINATION":87.9211,"RA_OF_ASC_NODE":26.4877,"ARG_OF_PERICENTER":87.5699,"MEAN_ANOMALY":272.5624,"EPHEMERIS_TYPE":0,"CLASSIFICATION_TYPE":"U","NORAD_CAT_ID":49196,"ELEMENT_SET_NO":999,"REV_AT_EPOCH":19616,"BSTAR":5.4530724e-5,"MEAN_MOTION_DOT":3.4e-7,"MEAN_MOTION_DDOT":0},{"OBJECT_NAME":"ONEWEB-0328","OBJECT_ID":"2021-083M","EPOCH":"2025-10-04T11:50:15.586944","MEAN_MOTION":13.13469192,"ECCENTRICITY":0.0001989,"INCLINATION":87.9053,"RA_OF_ASC_NODE":11.0042,"ARG_OF_PERICENTER":101.3924,"MEAN_ANOMALY":258.7428,"EPHEMERIS_TYPE":0,"CLASSIFICATION_TYPE":"U","NORAD_CAT_ID":49197,"ELEMENT_SET_NO":999,"REV_AT_EPOCH":19733,"BSTAR":0.00083276,"MEAN_MOTION_DOT":3.17e-6,"MEAN_MOTION_DDOT":0},{"OBJECT_NAME":"ONEWEB-0331","OBJECT_ID":"2021-083N","EPOCH":"2025-10-03T14:36:46.812960","MEAN_MOTION":13.18687087,"ECCENTRICITY":0.00020278,"INCLINATION":87.9219,"RA_OF_ASC_NODE":26.396,"ARG_OF_PERICENTER":90.8321,"MEAN_ANOMALY":269.3044,"EPHEMERIS_TYPE":0,"CLASSIFICATION_TYPE":"U","NORAD_CAT_ID":49198,"ELEMENT_SET_NO":999,"REV_AT_EPOCH":19619,"BSTAR":3.4372527e-5,"MEAN_MOTION_DOT":2.6e-7,"MEAN_MOTION_DDOT":0},{"OBJECT_NAME":"ONEWEB-0333","OBJECT_ID":"2021-083P","EPOCH":"2025-10-04T11:42:56.661120","MEAN_MOTION":13.13468942,"ECCENTRICITY":0.0001732,"INCLINATION":87.9039,"RA_OF_ASC_NODE":11.0698,"ARG_OF_PERICENTER":101.6566,"MEAN_ANOMALY":258.4757,"EPHEMERIS_TYPE":0,"CLASSIFICATION_TYPE":"U","NORAD_CAT_ID":49199,"ELEMENT_SET_NO":999,"REV_AT_EPOCH":19734,"BSTAR":0.0010265,"MEAN_MOTION_DOT":3.88e-6,"MEAN_MOTION_DDOT":0},{"OBJECT_NAME":"ONEWEB-0334","OBJECT_ID":"2021-083Q","EPOCH":"2025-10-03T13:18:09.139680","MEAN_MOTION":13.20773261,"ECCENTRICITY":0.00014142,"INCLINATION":87.9234,"RA_OF_ASC_NODE":325.6408,"ARG_OF_PERICENTER":128.74,"MEAN_ANOMALY":231.386,"EPHEMERIS_TYPE":0,"CLASSIFICATION_TYPE":"U","NORAD_CAT_ID":49200,"ELEMENT_SET_NO":999,"REV_AT_EPOCH":20291,"BSTAR":0.00023074769,"MEAN_MOTION_DOT":1.07e-6,"MEAN_MOTION_DDOT":0},{"OBJECT_NAME":"ONEWEB-0335","OBJECT_ID":"2021-083R","EPOCH":"2025-10-03T08:10:11.533728","MEAN_MOTION":13.13468982,"ECCENTRICITY":0.00018963,"INCLINATION":87.9039,"RA_OF_ASC_NODE":11.2848,"ARG_OF_PERICENTER":94.9149,"MEAN_ANOMALY":265.2197,"EPHEMERIS_TYPE":0,"CLASSIFICATION_TYPE":"U","NORAD_CAT_ID":49201,"ELEMENT_SET_NO":999,"REV_AT_EPOCH":19720,"BSTAR":0.00097676966,"MEAN_MOTION_DOT":3.69e-6,"MEAN_MOTION_DDOT":0},{"OBJECT_NAME":"ONEWEB-0336","OBJECT_ID":"2021-083S","EPOCH":"2025-10-03T05:39:02.759040","MEAN_MOTION":13.13468649,"ECCENTRICITY":0.00021142,"INCLINATION":87.9034,"RA_OF_ASC_NODE":11.2996,"ARG_OF_PERICENTER":91.95,"MEAN_ANOMALY":268.1871,"EPHEMERIS_TYPE":0,"CLASSIFICATION_TYPE":"U","NORAD_CAT_ID":49202,"ELEMENT_SET_NO":999,"REV_AT_EPOCH":19718,"BSTAR":0.00013686919,"MEAN_MOTION_DOT":6.3e-7,"MEAN_MOTION_DDOT":0},{"OBJECT_NAME":"ONEWEB-0337","OBJECT_ID":"2021-083T","EPOCH":"2025-10-04T12:58:19.028064","MEAN_MOTION":13.13470056,"ECCENTRICITY":0.000204,"INCLINATION":87.905,"RA_OF_ASC_NODE":11.0475,"ARG_OF_PERICENTER":99.2187,"MEAN_ANOMALY":260.9172,"EPHEMERIS_TYPE":0,"CLASSIFICATION_TYPE":"U","NORAD_CAT_ID":49203,"ELEMENT_SET_NO":999,"REV_AT_EPOCH":19735,"BSTAR":0.000103,"MEAN_MOTION_DOT":5.0e-7,"MEAN_MOTION_DDOT":0},{"OBJECT_NAME":"ONEWEB-0338","OBJECT_ID":"2021-083U","EPOCH":"2025-10-03T14:30:54.847872","MEAN_MOTION":13.20770876,"ECCENTRICITY":0.00017586,"INCLINATION":87.924,"RA_OF_ASC_NODE":325.631,"ARG_OF_PERICENTER":105.4268,"MEAN_ANOMALY":254.706,"EPHEMERIS_TYPE":0,"CLASSIFICATION_TYPE":"U","NORAD_CAT_ID":49204,"ELEMENT_SET_NO":999,"REV_AT_EPOCH":20294,"BSTAR":-2.8831215e-5,"MEAN_MOTION_DOT":1.0e-8,"MEAN_MOTION_DDOT":0}]
