ONEWEB-0306             
1 49188U 21083C   25276.60392741  .00000142  00000+0  32748-3 0  9991
2 49188  87.9217  26.3915 0001781 106.5815 253.5513 13.18687210196204
ONEWEB-0307             
1 49189U 21083D   25276.28878733 -.00001408  00000+0 -38901-2 0  9990
2 49189  87.9036  11.3047 0001841 103.0377 257.0958 13.13481741197205
ONEWEB-0320             
1 49190U 21083E   25276.53460453 -.00001850  00000+0 -47260-2 0  9995
2 49190  87.9214  26.4333 0001857  98.9611 261.1732 13.18680070196150
ONEWEB-0321             
1 49191U 21083F   25276.53691182 -.00000300  00000+0 -77061-3 0  9993
2 49191  87.9239 325.6114 0001877 107.1442 252.9897 13.20771022202953
ONEWEB-0322             
1 49192U 21083G   25277.50340209  .00000069  00000+0  15506-3 0  9999
2 49192  87.9050  11.0625 0001656 117.4229 242.7069 13.13469420197353
ONEWEB-0324             
1 49193U 21083H   25276.59731822 -.00000022  00000+0 -87782-4 0  9990
2 49193  87.9217  26.4003 0001919 101.3603 258.7745 13.18688081196188
ONEWEB-0325             
1 49194U 21083J   25276.60063218  .00000091  00000+0  19748-3 0  9990
2 49194  87.9216  26.4174 0001770 102.1555 257.9776 13.18685927196199
ONEWEB-0326             
1 49195U 21083K   25276.31209791  .00000043  00000+0  76814-4 0  9992
2 49195  87.9220  26.4625 0001782  89.2386 270.8950 13.18687779196146
ONEWEB-0327             
1 49196U 21083L   25276.31183229  .00000034  00000+0  54531-4 0  9992
2 49196  87.9211  26.4877 0001664  87.5699 272.5624 13.18685731196168
ONEWEB-0328             
1 49197U 21083M   25277.49323596  .00000317  00000+0  83276-3 0  9997
2 49197  87.9053  11.0042 0001989 101.3924 258.7428 13.13469192197337
ONEWEB-0331             
1 49198U 21083N   25276.60887515  .00000026  00000+0  34373-4 0  9998
2 49198  87.9219  26.3960 0002027  90.8321 269.3044 13.18687087196192
ONEWEB-0333             
1 49199U 21083P   25277.48815580  .00000388  00000+0  10265-2 0  9992
2 49199  87.9039  11.0698 0001732 101.6566 258.4757 13.13468942197346
ONEWEB-0334             
1 49200U 21083Q   25276.55427245  .00000107  00000+0  23075-3 0  9992
2 49200  87.9234 325.6408 0001414 128.7400 231.3860 13.20773261202919
ONEWEB-0335             
1 49201U 21083R   25276.34041127  .00000369  00000+0  97677-3 0  9990
2 49201  87.9039  11.2848 0001896  94.9149 265.2197 13.13468982197204
ONEWEB-0336             
1 49202U 21083S   25276.23544860  .00000063  00000+0  13687-3 0  9991
2 49202  87.9034  11.2996 0002114  91.9500 268.1871 13.13468649197184
ONEWEB-0337             
1 49203U 21083T   25277.54049801  .00000050  00000+0  10300-3 0  9997
2 49203  87.9050  11.0475 0002040  99.2187 260.9172 13.13470056197351
ONEWEB-0338             
1 49204U 21083U   25276.60480148  .00000001  00000+0 -28831-4 0  9993
2 49204  87.9240 325.6310 0001758 105.4268 254.7060 13.20770876202940
